{
    "links": {
        "self": "http://www.neowsapp.com/rest/v1/neo/3759297?api_key=iIulBulltgU6a56xZRHN4H3l9WmuAYTsLGpBGhQ2"
    },
    "id": "3759297",
    "neo_reference_id": "3759297",
    "name": "(2016 RO20)",
    "designation": "2016 RO20",
    "nasa_jpl_url": "http://ssd.jpl.nasa.gov/sbdb.cgi?sstr=3759297",
    "absolute_magnitude_h": 27.2,
    "estimated_diameter": {
        "kilometers": {
            "estimated_diameter_min": 0.0096506147,
            "estimated_diameter_max": 0.0215794305
        },
        "meters": {
            "estimated_diameter_min": 9.6506146958,
            "estimated_diameter_max": 21.5794304844
        },
        "miles": {
            "estimated_diameter_min": 0.0059966121,
            "estimated_diameter_max": 0.0134088323
        },
        "feet": {
            "estimated_diameter_min": 31.6621227185,
            "estimated_diameter_max": 70.7986587106
        }
    },
    "is_potentially_hazardous_asteroid": false,
    "close_approach_data": [
        {
            "close_approach_date": "2016-09-11",
            "close_approach_date_full": "2016-Sep-11 09:29",
            "epoch_date_close_approach": 1473586140000,
            "relative_velocity": {
                "kilometers_per_second": "16.4255004626",
                "kilometers_per_hour": "59131.801665202",
                "miles_per_hour": "36742.2019846917"
            },
            "miss_distance": {
                "astronomical": "0.0081473954",
                "lunar": "3.1693368106",
                "kilometers": "1218832.997887798",
                "miles": "757347.7062076924"
            },
            "orbiting_body": "Moon"
        },
        {
            "close_approach_date": "2016-09-11",
            "close_approach_date_full": "2016-Sep-11 12:47",
            "epoch_date_close_approach": 1473598020000,
            "relative_velocity": {
                "kilometers_per_second": "15.6497802245",
                "kilometers_per_hour": "56339.2088080841",
                "miles_per_hour": "35006.993384112"
            },
            "miss_distance": {
                "astronomical": "0.0062975015",
                "lunar": "2.4497280835",
                "kilometers": "942092.810721805",
                "miles": "585389.327718709"
            },
            "orbiting_body": "Earth"
        }
    ],
    "orbital_data": {
        "orbit_id": "2",
        "orbit_determination_date": "2017-04-06 08:23:58",
        "first_observation_date": "2016-09-10",
        "last_observation_date": "2016-09-11",
        "data_arc_in_days": 1,
        "observations_used": 59,
        "orbit_uncertainty": "7",
        "minimum_orbit_intersection": ".00495685",
        "jupiter_tisserand_invariant": "3.244",
        "epoch_osculation": "2459000.5",
        "eccentricity": ".6588681751631948",
        "semi_major_axis": "2.323198069004236",
        "inclination": "2.103289163933701",
        "ascending_node_longitude": "342.7209879809219",
        "orbital_period": "1293.384892828519",
        "perihelion_distance": ".7925167967367569",
        "perihelion_argument": "69.93105403246341",
        "aphelion_distance": "3.853879341271714",
        "perihelion_time": "2458983.409102012903",
        "mean_anomaly": "4.757070621027221",
        "mean_motion": ".2783394192990082",
        "equinox": "J2000",
        "orbit_class": {
            "orbit_class_type": "APO",
            "orbit_class_description": "Near-Earth asteroid orbits which cross the Earth’s orbit similar to that of 1862 Apollo",
            "orbit_class_range": "a (semi-major axis) > 1.0 AU; q (perihelion) < 1.017 AU"
        }
    },
    "is_sentry_object": false
}